{"type": "FeatureCollection", "features": [{"type": "Feature", "properties": {"norad_id": 50032, "name": "COSMOS 1408 DEB", "group": "cosmos-1408-debris", "lat": 51.304571342545636, "lon": 59.016588833488626, "alt_km": 430.5793663888562, "timestamp": "2025-12-21T09:37:22.925123+00:00", "meta": {"OBJECT_NAME": "COSMOS 1408 DEB", "OBJECT_ID": "1982-092RU", "EPOCH": "2025-12-21T04:44:15.700416", "MEAN_MOTION": 15.45771995, "ECCENTRICITY": 0.0016081, "INCLINATION": 82.5635, "RA_OF_ASC_NODE": 49.8404, "ARG_OF_PERICENTER": 177.0061, "MEAN_ANOMALY": 183.1287, "EPHEMERIS_TYPE": 0, "CLASSIFICATION_TYPE": "U", "NORAD_CAT_ID": 50032, "ELEMENT_SET_NO": 999, "REV_AT_EPOCH": 22734, "BSTAR": 7.6661e-05, "MEAN_MOTION_DOT": 3.769e-05, "MEAN_MOTION_DDOT": 0}, "tle": {"line1": "1 50032U 82092RU  25355.19740394  .00003769  00000+0  76661-4 0  9992", "line2": "2 50032  82.5635  49.8404 0016081 177.0061 183.1287 15.45771995227349"}}, "geometry": {"type": "Point", "coordinates": [59.016588833488626, 51.304571342545636]}}, {"type": "Feature", "properties": {"norad_id": 50058, "name": "COSMOS 1408 DEB", "group": "cosmos-1408-debris", "lat": 65.07388587473014, "lon": -135.93739675929612, "alt_km": 360.3081001441742, "timestamp": "2025-12-21T09:37:22.925144+00:00", "meta": {"OBJECT_NAME": "COSMOS 1408 DEB", "OBJECT_ID": "1982-092SW", "EPOCH": "2025-12-21T04:32:04.587936", "MEAN_MOTION": 15.64578574, "ECCENTRICITY": 0.0016127, "INCLINATION": 82.6126, "RA_OF_ASC_NODE": 60.4962, "ARG_OF_PERICENTER": 70.3199, "MEAN_ANOMALY": 289.9799, "EPHEMERIS_TYPE": 0, "CLASSIFICATION_TYPE": "U", "NORAD_CAT_ID": 50058, "ELEMENT_SET_NO": 999, "REV_AT_EPOCH": 22936, "BSTAR": 0.00024668, "MEAN_MOTION_DOT": 0.00024013, "MEAN_MOTION_DDOT": 0}, "tle": {"line1": "1 50058U 82092SW  25355.18894199  .00024013  00000+0  24668-3 0  9996", "line2": "2 50058  82.6126  60.4962 0016127  70.3199 289.9799 15.64578574229365"}}, "geometry": {"type": "Point", "coordinates": [-135.93739675929612, 65.07388587473014]}}, {"type": "Feature", "properties": {"norad_id": 50404, "name": "COSMOS 1408 DEB", "group": "cosmos-1408-debris", "lat": 69.69429609819097, "lon": 4.429645648651646, "alt_km": 455.23202897084775, "timestamp": "2025-12-21T09:37:22.925158+00:00", "meta": {"OBJECT_NAME": "COSMOS 1408 DEB", "OBJECT_ID": "1982-092ADS", "EPOCH": "2025-12-21T01:12:46.848672", "MEAN_MOTION": 15.14992545, "ECCENTRICITY": 0.0168791, "INCLINATION": 82.2052, "RA_OF_ASC_NODE": 206.5174, "ARG_OF_PERICENTER": 170.4182, "MEAN_ANOMALY": 190.0342, "EPHEMERIS_TYPE": 0, "CLASSIFICATION_TYPE": "U", "NORAD_CAT_ID": 50404, "ELEMENT_SET_NO": 999, "REV_AT_EPOCH": 21319, "BSTAR": 0.0022157, "MEAN_MOTION_DOT": 0.00059772, "MEAN_MOTION_DDOT": 0}, "tle": {"line1": "1 50404U 82092ADS 25355.05054223  .00059772  00000+0  22157-2 0  9993", "line2": "2 50404  82.2052 206.5174 0168791 170.4182 190.0342 15.14992545213194"}}, "geometry": {"type": "Point", "coordinates": [4.429645648651646, 69.69429609819097]}}, {"type": "Feature", "properties": {"norad_id": 50621, "name": "COSMOS 1408 DEB", "group": "cosmos-1408-debris", "lat": -75.49752039459493, "lon": -84.53589774457767, "alt_km": 417.69989265793174, "timestamp": "2025-12-21T09:37:22.925169+00:00", "meta": {"OBJECT_NAME": "COSMOS 1408 DEB", "OBJECT_ID": "1982-092ALR", "EPOCH": "2025-12-21T03:53:43.783584", "MEAN_MOTION": 15.57064455, "ECCENTRICITY": 0.0029107, "INCLINATION": 82.5696, "RA_OF_ASC_NODE": 65.4107, "ARG_OF_PERICENTER": 122.085, "MEAN_ANOMALY": 238.3237, "EPHEMERIS_TYPE": 0, "CLASSIFICATION_TYPE": "U", "NORAD_CAT_ID": 50621, "ELEMENT_SET_NO": 999, "REV_AT_EPOCH": 22381, "BSTAR": 0.00025809, "MEAN_MOTION_DOT": 0.00019093, "MEAN_MOTION_DDOT": 0}, "tle": {"line1": "1 50621U 82092ALR 25355.16231231  .00019093  00000+0  25809-3 0  9992", "line2": "2 50621  82.5696  65.4107 0029107 122.0850 238.3237 15.57064455223818"}}, "geometry": {"type": "Point", "coordinates": [-84.53589774457767, -75.49752039459493]}}]}